{"fetched_at":"2026-07-11T06:35:36.211Z","source":"https://celestrak.org/NORAD/elements/gp.php?NAME=LEGION&FORMAT=JSON","constellation":"maxar-legion","records":[{"OBJECT_NAME":"LEGION 1","OBJECT_ID":"2024-081A","EPOCH":"2026-07-10T17:07:01.833024","CLASSIFICATION_TYPE":"U","MEAN_MOTION":15.16825615,"ECCENTRICITY":0.0007701,"INCLINATION":97.5013,"RA_OF_ASC_NODE":269.3204,"ARG_OF_PERICENTER":288.5225,"MEAN_ANOMALY":71.5171,"EPHEMERIS_TYPE":0,"NORAD_CAT_ID":59625,"ELEMENT_SET_NO":999,"REV_AT_EPOCH":12110,"BSTAR":0.00011574,"MEAN_MOTION_DOT":0.00002209,"MEAN_MOTION_DDOT":0},{"OBJECT_NAME":"LEGION 2","OBJECT_ID":"2024-081B","EPOCH":"2026-07-10T17:50:41.526816","CLASSIFICATION_TYPE":"U","MEAN_MOTION":15.16804692,"ECCENTRICITY":0.0009994,"INCLINATION":97.5012,"RA_OF_ASC_NODE":269.4473,"ARG_OF_PERICENTER":250.9573,"MEAN_ANOMALY":109.0578,"EPHEMERIS_TYPE":0,"NORAD_CAT_ID":59626,"ELEMENT_SET_NO":999,"REV_AT_EPOCH":12111,"BSTAR":0.00011559,"MEAN_MOTION_DOT":0.00002206,"MEAN_MOTION_DDOT":0},{"OBJECT_NAME":"LEGION 3","OBJECT_ID":"2024-146A","EPOCH":"2026-07-10T14:11:05.373888","CLASSIFICATION_TYPE":"U","MEAN_MOTION":15.15637578,"ECCENTRICITY":0.0008631,"INCLINATION":45.0014,"RA_OF_ASC_NODE":265.0672,"ARG_OF_PERICENTER":309.9057,"MEAN_ANOMALY":50.1062,"EPHEMERIS_TYPE":0,"NORAD_CAT_ID":60452,"ELEMENT_SET_NO":999,"REV_AT_EPOCH":10557,"BSTAR":0.00011981,"MEAN_MOTION_DOT":0.00002054,"MEAN_MOTION_DDOT":0},{"OBJECT_NAME":"LEGION 4","OBJECT_ID":"2024-146B","EPOCH":"2026-07-10T18:55:33.995424","CLASSIFICATION_TYPE":"U","MEAN_MOTION":15.15657914,"ECCENTRICITY":0.0008987,"INCLINATION":45.0026,"RA_OF_ASC_NODE":355.8751,"ARG_OF_PERICENTER":85.6099,"MEAN_ANOMALY":274.5806,"EPHEMERIS_TYPE":0,"NORAD_CAT_ID":60453,"ELEMENT_SET_NO":999,"REV_AT_EPOCH":10445,"BSTAR":0.00012858,"MEAN_MOTION_DOT":0.00002225,"MEAN_MOTION_DDOT":0},{"OBJECT_NAME":"LEGION 5","OBJECT_ID":"2025-025A","EPOCH":"2026-07-10T09:27:48.186144","CLASSIFICATION_TYPE":"U","MEAN_MOTION":15.16054568,"ECCENTRICITY":0.00085488,"INCLINATION":44.9999,"RA_OF_ASC_NODE":176.9628,"ARG_OF_PERICENTER":278.4913,"MEAN_ANOMALY":81.4996,"EPHEMERIS_TYPE":0,"NORAD_CAT_ID":62900,"ELEMENT_SET_NO":999,"REV_AT_EPOCH":7801,"BSTAR":0.0001011238,"MEAN_MOTION_DOT":0.00001714,"MEAN_MOTION_DDOT":0},{"OBJECT_NAME":"LEGION 6","OBJECT_ID":"2025-025B","EPOCH":"2026-07-10T03:05:19.970304","CLASSIFICATION_TYPE":"U","MEAN_MOTION":15.1566877,"ECCENTRICITY":0.00107352,"INCLINATION":45.0014,"RA_OF_ASC_NODE":87.5194,"ARG_OF_PERICENTER":250.8009,"MEAN_ANOMALY":109.1708,"EPHEMERIS_TYPE":0,"NORAD_CAT_ID":62901,"ELEMENT_SET_NO":999,"REV_AT_EPOCH":7911,"BSTAR":0.00013493497,"MEAN_MOTION_DOT":0.0000235,"MEAN_MOTION_DDOT":0}]}
